ONEWEB-0589             
1 54655U 22166P   24319.58921376  .00000052  00000+0  95252-4 0  9995
2 54655  87.9323 359.4453 0002469 115.3358 244.8031 13.21822096 94974
ONEWEB-0590             
1 54656U 22166Q   24319.61286790  .00000027  00000+0  33751-4 0  9992
2 54656  87.9311 359.4496 0001753  99.8907 260.2425 13.21827087 95425
ONEWEB-0591             
1 54657U 22166R   24319.54980046  .00000119  00000+0  25582-3 0  9994
2 54657  87.9318 359.4549 0001822 102.3951 257.7386 13.21826368 94986
ONEWEB-0592             
1 54658U 22166S   24319.55294699  .00000085  00000+0  17434-3 0  9997
2 54658  87.9318 359.4145 0001863 101.5915 258.5428 13.21824694 94868
ONEWEB-0593             
1 54659U 22166T   24319.57660670 -.00000005  00000+0 -42460-4 0  9998
2 54659  87.9321 359.4404 0001991 102.6512 257.4845 13.21826282 95449
ONEWEB-0594             
1 54660U 22166U   24319.59552226  .00000052  00000+0  93395-4 0  9992
2 54660  87.9326 359.4416 0001908  94.8005 265.3346 13.21828151 95458
ONEWEB-0595             
1 54661U 22166V   24319.57344130  .00000023  00000+0  24715-4 0  9992
2 54661  87.9324 359.4299 0001706  92.9271 267.2058 13.21828225 94964
ONEWEB-0596             
1 54662U 22166W   24319.62234162  .00000040  00000+0  66201-4 0  9997
2 54662  87.9324 359.4286 0001848 105.9183 254.2155 13.21824687 95441
ONEWEB-0597             
1 54663U 22166X   24319.60340169  .00000093  00000+0  19274-3 0  9996
2 54663  87.9324 359.4347 0002104 101.4885 258.6485 13.21828921 94972
ONEWEB-0600             
1 54664U 22166Y   24319.58605327 -.00000008  00000+0 -51178-4 0  9992
2 54664  87.9318 359.4698 0002049  98.3040 261.8327 13.21826772 94940
ONEWEB-0601             
1 54665U 22166Z   24319.57816945  .00000016  00000+0  60836-5 0  9991
2 54665  87.9326 359.4467 0002027 109.1710 250.9643 13.21827877 95134
ONEWEB-0602             
1 54666U 22166AA  24319.61917783  .00001091  00000+0  26103-2 0  9999
2 54666  87.9316 359.4414 0002580  91.7638 268.3791 13.21833469 95451
ONEWEB-0603             
1 54667U 22166AB  24319.62391709  .00000029  00000+0  38458-4 0  9993
2 54667  87.9299 359.4380 0002089 104.7863 255.3503 13.21824378 95370
ONEWEB-0604             
1 54668U 22166AC  24319.61128653 -.00000105  00000+0 -28666-3 0  9995
2 54668  87.9323 359.4158 0002202  97.8782 262.2602 13.21827597 94878
ONEWEB-0605             
1 54669U 22166AD  24319.60498473  .00000172  00000+0  38527-3 0  9994
2 54669  87.9320 359.4490 0001810 119.0269 241.1046 13.21826827 94947
ONEWEB-0606             
1 54670U 22166AE  24319.55137225  .00000007  00000+0 -14212-4 0  9999
2 54670  87.9326 359.4581 0001757  92.0253 268.1082 13.21827861 95454
ONEWEB-0607             
1 54671U 22166AF  24319.59394168  .00000019  00000+0  13319-4 0  9994
2 54671  87.9322 359.4222 0002056 101.5778 258.5586 13.21829061 95438
ONEWEB-0608             
1 54672U 22166AG  24319.60025032  .00000095  00000+0  19902-3 0  9995
2 54672  87.9304 359.4471 0002143 110.0273 250.1092 13.21827143 94985
ONEWEB-0610             
1 54673U 22166AH  24319.58133719 -.00000009  00000+0 -54352-4 0  9991
2 54673  87.9323 359.4425 0002092 111.7763 248.3594 13.21825867 95350
ONEWEB-0611             
1 54674U 22166AJ  24319.57502838  .00000035  00000+0  52947-4 0  9998
2 54674  87.9320 359.4418 0001867  85.9851 274.1496 13.21824298 94870
ONEWEB-0612             
1 54675U 22166AK  24319.58764635 -.00000018  00000+0 -74955-4 0  9991
2 54675  87.9320 359.4200 0001996 102.5722 257.5635 13.21827666 95330
ONEWEB-0615             
1 54676U 22166AL  24319.56871980  .00000037  00000+0  59233-4 0  9993
2 54676  87.9319 359.4490 0002153  98.9905 261.1472 13.21827300 94870
ONEWEB-0655             
1 54677U 22166AM  24319.61760400  .00000020  00000+0  16212-4 0  9996
2 54677  87.9322 359.4424 0002345  97.1333 263.0067 13.21830314 95344
ONEWEB-0659             
1 54678U 22166AN  24319.55925964  .00000041  00000+0  67254-4 0  9993
2 54678  87.9321 359.4584 0001723  95.1201 265.0129 13.21824580 95420
ONEWEB-0685             
1 54679U 22166AP  24319.56083111  .00000008  00000+0 -12928-4 0  9996
2 54679  87.9323 359.4497 0002112  98.8634 261.2739 13.21827835 94845
ONEWEB-0712             
1 54680U 22166AQ  24319.58320645  .00000053  00000+0  10415-3 0  9993
2 54680  87.9094 344.2384 0002421  86.1738 273.9670 13.16592334 95793
ONEWEB-0714             
1 54681U 22166AR  24319.18865239  .00000075  00000+0  14946-3 0  9990
2 54681  87.9325 359.5123 0002095  99.8471 260.2899 13.21829090 94916
ONEWEB-0532             
1 55140U 23004A   24319.48847464  .00000076  00000+0  16351-3 0  9999
2 55140  87.9074 121.3428 0001306 111.8534 248.2736 13.17644914 91244
ONEWEB-0533             
1 55141U 23004B   24319.44507049 -.00000325  00000+0 -93782-3 0  9990
2 55141  87.8862 106.0954 0001670  97.2150 262.9168 13.12445100 92017
ONEWEB-0541             
1 55142U 23004C   24319.55573175  .00000424  00000+0  11615-2 0  9998
2 55142  87.8882 136.5350 0001507  89.4849 270.6451 13.11418109 89975
ONEWEB-0543             
1 55143U 23004D   24319.39192764 -.00001751  00000+0 -44759-2 0  9993
2 55143  87.9083  90.9118 0001615  88.1767 271.9550 13.18684601 93282
ONEWEB-0544             
1 55144U 23004E   24319.38558722 -.00000396  00000+0 -10384-2 0  9994
2 55144  87.9087  90.9010 0001516  91.5472 268.5834 13.18685712 93280
ONEWEB-0560             
1 55145U 23004F   24319.37927012  .00000111  00000+0  24924-3 0  9995
2 55145  87.9094  90.8622 0001555  84.8330 275.2979 13.18689424 93298
ONEWEB-0565             
1 55146U 23004G   24319.37294679  .00000097  00000+0  21285-3 0  9992
2 55146  87.9091  90.9343 0000973  91.3611 268.7632 13.18688310 93280
ONEWEB-0567             
1 55147U 23004H   24319.44248903  .00000047  00000+0  85569-4 0  9991
2 55147  87.9090  90.8749 0001216  82.2207 277.9063 13.18689799 93293
ONEWEB-0569             
1 55148U 23004J   24319.37185744 -.00000087  00000+0 -27407-3 0  9999
2 55148  87.8918  75.5305 0001331  59.5605 300.5655 13.13472174 94065
ONEWEB-0570             
1 55149U 23004K   24319.42985514  .00000017  00000+0  11095-4 0  9997
2 55149  87.9089  90.8773 0001192 125.2410 234.8834 13.18687817 93283
ONEWEB-0571             
1 55150U 23004L   24319.42352542  .00000054  00000+0  10476-3 0  9990
2 55150  87.9088  90.8857 0000718  70.0598 290.0611 13.18684234 93292
ONEWEB-0572             
1 55151U 23004M   24319.51887662  .00000033  00000+0  51258-4 0  9998
2 55151  87.9074 121.3438 0001292  94.0624 266.0655 13.17648255 91142
ONEWEB-0573             
1 55152U 23004N   24319.41719607 -.00000707  00000+0 -18265-2 0  9990
2 55152  87.9084  90.9007 0000655  98.0859 262.0347 13.18691800 93289
ONEWEB-0588             
1 55153U 23004P   24319.41087378  .00000091  00000+0  19727-3 0  9993
2 55153  87.9089  90.8762 0001187 113.6317 246.4940 13.18689816 93285
ONEWEB-0598             
1 55154U 23004Q   24319.53367975 -.00000404  00000+0 -11769-2 0  9998
2 55154  87.8882 136.5781 0001159  63.0676 297.0570 13.11420021 89921
ONEWEB-0599             
1 55155U 23004R   24319.48006197  .00000064  00000+0  13135-3 0  9999
2 55155  87.9078 121.3440 0001622  85.4930 274.6387 13.17648390 91141
ONEWEB-0614             
1 55156U 23004S   24319.52859616 -.00000789  00000+0 -22628-2 0  9999
2 55156  87.8880 136.5851 0001555 103.7470 256.3831 13.11416456 89861
ONEWEB-0616             
1 55157U 23004T   24319.52224025  .00000054  00000+0  10637-3 0  9991
2 55157  87.9074 121.3369 0002534  74.4013 285.7398 13.17651059 91367
ONEWEB-0617             
1 55158U 23004U   24319.51673575 -.00000307  00000+0 -90082-3 0  9994
2 55158  87.8878 136.5764 0001273 102.1940 257.9331 13.11415763 89889
ONEWEB-0618             
1 55159U 23004V   24319.30472225  .00001487  00000+0  59795-3 0  9995
2 55159  86.9105  40.0541 0014273 150.0272 210.1740 14.27451660 96752
ONEWEB-0619             
1 55160U 23004W   24319.47837509  .00000068  00000+0  14128-3 0  9990
2 55160  87.9074 121.3225 0002067 101.6901 258.4462 13.17648261 91250
ONEWEB-0620             
1 55161U 23004X   24319.51164677 -.00000155  00000+0 -47199-3 0  9998
2 55161  87.8880 136.5917 0001052  97.2000 262.9248 13.11416320 89852
ONEWEB-0621             
1 55162U 23004Y   24319.53877514 -.00000233  00000+0 -69318-3 0  9996
2 55162  87.8881 136.5509 0001710  95.4650 264.6673 13.11420242 89830
ONEWEB-0622             
1 55163U 23004Z   24319.54386010 -.00000056  00000+0 -19469-3 0  9999
2 55163  87.8879 136.5686 0001250 124.0720 236.0527 13.11420502 89829
ONEWEB-0623             
1 55164U 23004AA  24319.54925775  .00000026  00000+0  33606-4 0  9992
2 55164  87.9074 121.3627 0001754 122.8763 237.2538 13.17648992 91253
ONEWEB-0624             
1 55165U 23004AB  24319.41115339  .00000511  00000+0  13864-2 0  9997
2 55165  87.8863 106.1105 0001597 102.6756 257.4551 13.12440987 92006
ONEWEB-0625             
1 55166U 23004AC  24319.53911610  .00000063  00000+0  12874-3 0  9990
2 55166  87.9077 121.3635 0001742  88.7506 271.3825 13.17649137 91248
ONEWEB-0626             
1 55167U 23004AD  24319.52900873  .00000051  00000+0  98090-4 0  9991
2 55167  87.9074 121.3649 0001132  81.9423 278.1836 13.17648766 91241
ONEWEB-0627             
1 55168U 23004AE  24319.51719542  .00000068  00000+0  14177-3 0  9993
2 55168  87.9074 121.3690 0001486 118.8168 241.3113 13.17648475 91243
ONEWEB-0628             
1 55169U 23004AF  24319.46793457  .00000327  00000+0  87431-3 0  9996
2 55169  87.8856 106.0824 0001924 120.1894 239.9425 13.12445049 91997
ONEWEB-0629             
1 55170U 23004AG  24319.49272148  .00000105  00000+0  23710-3 0  9994
2 55170  87.9068 121.3484 0001958  98.6462 261.4891 13.17651952 91246
ONEWEB-0631             
1 55171U 23004AH  24319.40457058  .00000079  00000+0  16735-3 0  9990
2 55171  87.9095  90.7911 0001012 103.4637 256.6608 13.18687365 93265
